{
  "type": "FeatureCollection",
  "features": [
    {
      "type": "Feature",
      "properties": {
        "norad_id": 32214,
        "name": "FENGYUN 1C DEB",
        "group": "fengyun-1c-debris",
        "lat": -74.71841540770312,
        "lon": 39.4576195816805,
        "alt_km": 1040.6239193668744,
        "timestamp": "2025-12-03T22:42:32.920175+00:00",
        "meta_object_name": "FENGYUN 1C DEB",
        "meta_object_id": "1999-025CVL",
        "meta_epoch": "2025-12-02T21:44:34.255392",
        "meta_mean_motion": 13.90359626,
        "meta_eccentricity": 0.01891259,
        "meta_inclination": 99.0447,
        "meta_ra_of_asc_node": 2.785,
        "meta_arg_of_pericenter": 66.0242,
        "meta_mean_anomaly": 53.727,
        "meta_ephemeris_type": 0,
        "meta_classification_type": "U",
        "meta_norad_cat_id": 32214,
        "meta_element_set_no": 999,
        "meta_rev_at_epoch": 62285,
        "meta_bstar": 0.0057649375,
        "meta_mean_motion_dot": 8.23e-05,
        "meta_mean_motion_ddot": 0,
        "tle_line1": "1 32214U 99025CVL 25336.90595203  .00008230  00000+0  57649-2 0  9994",
        "tle_line2": "2 32214  99.0447   2.7850 0189125  66.0242  53.7270 13.90359626622856"
      },
      "geometry": {
        "type": "Point",
        "coordinates": [
          39.4576195816805,
          -74.71841540770312
        ]
      }
    },
    {
      "type": "Feature",
      "properties": {
        "norad_id": 32218,
        "name": "FENGYUN 1C DEB",
        "group": "fengyun-1c-debris",
        "lat": -77.02592698616832,
        "lon": -50.995394409368494,
        "alt_km": 758.8959278216626,
        "timestamp": "2025-12-03T22:42:32.920184+00:00",
        "meta_object_name": "FENGYUN 1C DEB",
        "meta_object_id": "1999-025CVQ",
        "meta_epoch": "2025-12-03T11:45:48.178944",
        "meta_mean_motion": 14.55381679,
        "meta_eccentricity": 0.006312,
        "meta_inclination": 98.8118,
        "meta_ra_of_asc_node": 170.8455,
        "meta_arg_of_pericenter": 95.3464,
        "meta_mean_anomaly": 296.7511,
        "meta_ephemeris_type": 0,
        "meta_classification_type": "U",
        "meta_norad_cat_id": 32218,
        "meta_element_set_no": 999,
        "meta_rev_at_epoch": 96098,
        "meta_bstar": 0.0010699,
        "meta_mean_motion_dot": 4.721e-05,
        "meta_mean_motion_ddot": 0,
        "tle_line1": "1 32218U 99025CVQ 25337.49014096  .00004721  00000+0  10699-2 0  9994",
        "tle_line2": "2 32218  98.8118 170.8455 0063120  95.3464 296.7511 14.55381679960988"
      },
      "geometry": {
        "type": "Point",
        "coordinates": [
          -50.995394409368494,
          -77.02592698616832
        ]
      }
    },
    {
      "type": "Feature",
      "properties": {
        "norad_id": 32221,
        "name": "FENGYUN 1C DEB",
        "group": "fengyun-1c-debris",
        "lat": 44.806062393280534,
        "lon": 118.98361837376012,
        "alt_km": 755.5404346232617,
        "timestamp": "2025-12-03T22:42:32.920194+00:00",
        "meta_object_name": "FENGYUN 1C DEB",
        "meta_object_id": "1999-025CVT",
        "meta_epoch": "2025-12-03T09:19:31.012032",
        "meta_mean_motion": 14.5862414,
        "meta_eccentricity": 0.0146547,
        "meta_inclination": 98.5648,
        "meta_ra_of_asc_node": 127.0178,
        "meta_arg_of_pericenter": 174.4778,
        "meta_mean_anomaly": 185.8079,
        "meta_ephemeris_type": 0,
        "meta_classification_type": "U",
        "meta_norad_cat_id": 32221,
        "meta_element_set_no": 999,
        "meta_rev_at_epoch": 97061,
        "meta_bstar": 0.00066967,
        "meta_mean_motion_dot": 3.563e-05,
        "meta_mean_motion_ddot": 0,
        "tle_line1": "1 32221U 99025CVT 25337.38855338  .00003563  00000+0  66967-3 0  9991",
        "tle_line2": "2 32221  98.5648 127.0178 0146547 174.4778 185.8079 14.58624140970619"
      },
      "geometry": {
        "type": "Point",
        "coordinates": [
          118.98361837376012,
          44.806062393280534
        ]
      }
    },
    {
      "type": "Feature",
      "properties": {
        "norad_id": 32223,
        "name": "FENGYUN 1C DEB",
        "group": "fengyun-1c-debris",
        "lat": 49.6277631758816,
        "lon": 46.46268559728828,
        "alt_km": 804.7299893658401,
        "timestamp": "2025-12-03T22:42:32.920202+00:00",
        "meta_object_name": "FENGYUN 1C DEB",
        "meta_object_id": "1999-025CVV",
        "meta_epoch": "2025-12-03T10:55:28.371072",
        "meta_mean_motion": 14.20810685,
        "meta_eccentricity": 0.0046668,
        "meta_inclination": 98.8397,
        "meta_ra_of_asc_node": 56.5179,
        "meta_arg_of_pericenter": 345.0061,
        "meta_mean_anomaly": 74.8726,
        "meta_ephemeris_type": 0,
        "meta_classification_type": "U",
        "meta_norad_cat_id": 32223,
        "meta_element_set_no": 999,
        "meta_rev_at_epoch": 64092,
        "meta_bstar": 0.001893,
        "meta_mean_motion_dot": 4.091e-05,
        "meta_mean_motion_ddot": 0,
        "tle_line1": "1 32223U 99025CVV 25337.45518948  .00004091  00000+0  18930-2 0  9997",
        "tle_line2": "2 32223  98.8397  56.5179 0046668 345.0061  74.8726 14.20810685640920"
      },
      "geometry": {
        "type": "Point",
        "coordinates": [
          46.46268559728828,
          49.6277631758816
        ]
      }
    },
    {
      "type": "Feature",
      "properties": {
        "norad_id": 32224,
        "name": "FENGYUN 1C DEB",
        "group": "fengyun-1c-debris",
        "lat": 71.60912908053734,
        "lon": 137.02504672927876,
        "alt_km": 717.9353838468651,
        "timestamp": "2025-12-03T22:42:32.920212+00:00",
        "meta_object_name": "FENGYUN 1C DEB",
        "meta_object_id": "1999-025CVW",
        "meta_epoch": "2025-12-02T07:42:20.079072",
        "meta_mean_motion": 14.33989885,
        "meta_eccentricity": 0.00771432,
        "meta_inclination": 98.9822,
        "meta_ra_of_asc_node": 286.9314,
        "meta_arg_of_pericenter": 96.5488,
        "meta_mean_anomaly": 264.4485,
        "meta_ephemeris_type": 0,
        "meta_classification_type": "U",
        "meta_norad_cat_id": 32224,
        "meta_element_set_no": 999,
        "meta_rev_at_epoch": 95574,
        "meta_bstar": 0.00039198885,
        "meta_mean_motion_dot": 1.084e-05,
        "meta_mean_motion_ddot": 0,
        "tle_line1": "1 32224U 99025CVW 25336.32106573  .00001084  00000+0  39199-3 0  9990",
        "tle_line2": "2 32224  98.9822 286.9314 0077143  96.5488 264.4485 14.33989885955749"
      },
      "geometry": {
        "type": "Point",
        "coordinates": [
          137.02504672927876,
          71.60912908053734
        ]
      }
    },
    {
      "type": "Feature",
      "properties": {
        "norad_id": 32225,
        "name": "FENGYUN 1C DEB",
        "group": "fengyun-1c-debris",
        "lat": 4.616106696726832,
        "lon": 25.731655376704634,
        "alt_km": 886.4868851845404,
        "timestamp": "2025-12-03T22:42:32.920221+00:00",
        "meta_object_name": "FENGYUN 1C DEB",
        "meta_object_id": "1999-025CVX",
        "meta_epoch": "2025-12-02T09:17:58.336800",
        "meta_mean_motion": 14.13030511,
        "meta_eccentricity": 0.00713215,
        "meta_inclination": 99.0934,
        "meta_ra_of_asc_node": 24.8898,
        "meta_arg_of_pericenter": 235.8131,
        "meta_mean_anomaly": 123.6266,
        "meta_ephemeris_type": 0,
        "meta_classification_type": "U",
        "meta_norad_cat_id": 32225,
        "meta_element_set_no": 999,
        "meta_rev_at_epoch": 67970,
        "meta_bstar": 0.00030097544,
        "meta_mean_motion_dot": 5.29e-06,
        "meta_mean_motion_ddot": 0,
        "tle_line1": "1 32225U 99025CVX 25336.38748075  .00000529  00000+0  30098-3 0  9998",
        "tle_line2": "2 32225  99.0934  24.8898 0071321 235.8131 123.6266 14.13030511679700"
      },
      "geometry": {
        "type": "Point",
        "coordinates": [
          25.731655376704634,
          4.616106696726832
        ]
      }
    },
    {
      "type": "Feature",
      "properties": {
        "norad_id": 32230,
        "name": "FENGYUN 1C DEB",
        "group": "fengyun-1c-debris",
        "lat": -75.1701556704936,
        "lon": 163.15386946231837,
        "alt_km": 750.4652394213826,
        "timestamp": "2025-12-03T22:42:32.920231+00:00",
        "meta_object_name": "FENGYUN 1C DEB",
        "meta_object_id": "1999-025CWC",
        "meta_epoch": "2025-11-30T09:24:55.537344",
        "meta_mean_motion": 14.55588472,
        "meta_eccentricity": 0.00526929,
        "meta_inclination": 98.8709,
        "meta_ra_of_asc_node": 123.2328,
        "meta_arg_of_pericenter": 127.3302,
        "meta_mean_anomaly": 261.6517,
        "meta_ephemeris_type": 0,
        "meta_classification_type": "U",
        "meta_norad_cat_id": 32230,
        "meta_element_set_no": 999,
        "meta_rev_at_epoch": 60490,
        "meta_bstar": 0.0036213421,
        "meta_mean_motion_dot": 0.00016074,
        "meta_mean_motion_ddot": 0,
        "tle_line1": "1 32230U 99025CWC 25334.39230946  .00016074  00000+0  36213-2 0  9992",
        "tle_line2": "2 32230  98.8709 123.2328 0052692 127.3302 261.6517 14.55588472604902"
      },
      "geometry": {
        "type": "Point",
        "coordinates": [
          163.15386946231837,
          -75.1701556704936
        ]
      }
    }
  ]
}